[{"OBJECT_NAME":"OBJECT B","OBJECT_ID":"2024-205B","EPOCH":"2026-03-09T23:46:05.115936","MEAN_MOTION":15.28158697,"ECCENTRICITY":0.00105957,"INCLINATION":97.4192,"RA_OF_ASC_NODE":146.9311,"ARG_OF_PERICENTER":34.0947,"MEAN_ANOMALY":326.0972,"EPHEMERIS_TYPE":0,"CLASSIFICATION_TYPE":"U","NORAD_CAT_ID":61895,"ELEMENT_SET_NO":999,"REV_AT_EPOCH":7352,"BSTAR":0.00054154807,"MEAN_MOTION_DOT":0.00014827,"MEAN_MOTION_DDOT":0},{"OBJECT_NAME":"STARLINK-35360","OBJECT_ID":"2025-259Y","EPOCH":"2026-03-09T22:34:38.995104","MEAN_MOTION":15.27603584,"ECCENTRICITY":0.0002299,"INCLINATION":43.005,"RA_OF_ASC_NODE":272.5823,"ARG_OF_PERICENTER":295.7841,"MEAN_ANOMALY":64.2773,"EPHEMERIS_TYPE":0,"CLASSIFICATION_TYPE":"U","NORAD_CAT_ID":66444,"ELEMENT_SET_NO":999,"REV_AT_EPOCH":1953,"BSTAR":0.00088901469,"MEAN_MOTION_DOT":0.000243,"MEAN_MOTION_DDOT":0}]
